#aV2007  6  6  0  0   .00000000      96 DD+AD WGS84 FIT  NGA
## 1430 259200.00000000   900.00000000 54257  .0000000000000
+   30     1  2  3  4  5  6  7  8  9 10 11 12 13 14 16 17 18
+         19 20 21 22 23 24 25 26 27 28 29 30 31  0  0  0  0
+          0  0  0  0  0  0  0  0  0  0  0  0  0  0  0  0  0
+          0  0  0  0  0  0  0  0  0  0  0  0  0  0  0  0  0
+          0  0  0  0  0  0  0  0  0  0  0  0  0  0  0  0  0
++         0  0  0  0  0  0  0  0  0  0  0  0  0  0  0  0  0
++         0  0  0  0  0  0  0  0  0  0  0  0  0  0  0  0  0
++         0  0  0  0  0  0  0  0  0  0  0  0  0  0  0  0  0
++         0  0  0  0  0  0  0  0  0  0  0  0  0  0  0  0  0
++         0  0  0  0  0  0  0  0  0  0  0  0  0  0  0  0  0
%c cc cc ccc ccc cccc cccc cccc cccc ccccc ccccc ccccc ccccc
%c cc cc ccc ccc cccc cccc cccc cccc ccccc ccccc ccccc ccccc
%f  0.0000000  0.000000000  0.00000000000  0.000000000000000
%f  0.0000000  0.000000000  0.00000000000  0.000000000000000
%i    0    0    0    0      0      0      0      0         0
%i    0    0    0    0      0      0      0      0         0
/*      NGA, ST. LOUIS,MO.                                  
/*   EPHEMERIS COMPUTED FROM  3 DAYS OF DATA                
/* CCCCCCCCCCCCCCCCCCCCCCCCCCCCCCCCCCCCCCCCCCCCCCCCCCCCCCCCC
/* CCCCCCCCCCCCCCCCCCCCCCCCCCCCCCCCCCCCCCCCCCCCCCCCCCCCCCCCC
*  2007  6  6 20 15   .00000000                                                 
P  1  -4865.922148 -14043.590543  22219.097656    132.594589                    
V  1  27352.143740  -3927.953131   3478.011403       .022728                    
P  2  12118.187146  22438.415922   7723.610259    112.239383                    
V  2  -8739.839787  -5697.783717  29175.027181       .028557                    
P  3 -10797.787745 -13082.438480 -20707.045972     68.503716                    
V  3  24639.035788  -8020.399638  -7522.878342       .054991                    
P  4   1185.195413  20321.624940  16802.540634     10.174339                    
V  4 -15627.309811 -15152.991976  19705.668655      -.006149                    
P  5  16001.278444   -862.433381  20926.239332     15.464861                    
V  5  -6045.258639  26552.464361   5805.078695       .536049                    
P  6  25751.989912  -6513.087968   -888.033625    206.887806                    
V  6   2131.274211   3267.235899  31073.609117       .108923                    
P  7  24528.211918  -9296.462600  -4029.682062    268.220488                    
V  7   6258.699271   2090.654256  30565.142654      -.183139                    
P  8  -8399.301073  12937.753094 -21676.519560   -110.049033                    
V  8 -17268.210934 -21115.440737  -6372.561245      -.015789                    
P  9  20856.636152  13984.587214   8385.599797     73.470538                    
V  9   5994.697085  10001.293689 -29280.592120       .014723                    
P 10   3527.711845  21082.912097 -15670.832915    102.958006                    
V 10  -8842.692794  17823.138394  22462.584906       .004359                    
P 11 -23122.516035  -9712.079305   9059.047239     17.803407                    
V 11  -6331.468152 -10694.572819 -27002.173605       .008684                    
P 12  14549.395539   4579.569760  21850.201917    -46.232761                    
V 12  -8987.998980  25975.330510    603.674750      -.008222                    
P 13 -25554.518078   6236.641927  -3621.503755    179.161836                    
V 13  -4666.619452  -1060.673195  32075.495264       .033399                    
P 14  12270.381777 -14479.874206  18624.007440     23.681572                    
V 14  23306.186810  -2785.445414 -17673.671903       .018270                    
P 16   1002.724072 -24198.415566 -10638.565086    153.619682                    
V 16   7083.352512 -11977.049566  27838.615141       .028466                    
P 17 -14488.729190  14572.940065  16770.079639     65.528256                    
V 17 -21317.101220   1933.612128 -20245.221517      -.012597                    
P 18  16408.891265 -15762.572376 -13272.295017   -248.069838                    
V 18  -3855.920279  17013.517788 -25050.793581       .009965                    
P 19 -19474.927103  -8799.237328 -15745.428738     40.539292                    
V 19  19755.558323  -4390.084813 -21723.819203       .032236                    
P 20 -15174.862947  -2859.382730  21502.300733    -25.365552                    
V 20   8549.142191 -26230.056596   2566.562471      -.003956                    
P 21  15370.540710  -5329.855286 -20950.327879     77.675853                    
V 21  16508.399204  21218.716575   6095.194114       .003683                    
P 22  11564.163291 -23741.375177  -2507.421446    185.415495                    
V 22   1663.587289   4316.984788 -31336.640782       .014242                    
P 23 -25729.733719     -9.272842   6927.914022    171.817286                    
V 23   8289.017127  -3821.669578  30203.794605       .028604                    
P 24  19677.987704   6917.919574 -16066.923265      5.508548                    
V 24  11031.636714  17902.551674  21237.685008       .027983                    
P 25 -19789.051327  -2430.058489 -17104.841448    300.604945                    
V 25 -14870.658346 -17013.043533  19354.820785       .229331                    
P 26  17077.230248   9696.360103 -18594.572234   -235.715298                    
V 26 -22081.784601   3925.386072 -18133.399962      -.212035                    
P 27 -14906.367330   5292.395879 -20733.511709    115.092933                    
V 27 -18871.276367 -20390.836319   7887.775277       .021532                    
P 28 -12908.045223  22072.237523  -6144.313508      -.455317                    
V 28    103.899283  -8849.658203 -30685.691281      -.007278                    
P 29  12946.340703  11124.903576 -20250.973097      3.466828                    
V 29 -25426.857765   5420.681292 -12782.926891       .003804                    
P 30  16627.159990  -7673.986258  18890.707809     35.922259                    
V 30  -5714.991518  24114.045223  14698.612373       .011506                    
P 31  -2865.878089 -20782.671210  16442.728869     18.435325                    
V 31  14808.349995  14340.799117  21028.642270      -.007270                    
EOF
